[
  {
    "COMMENT": "GENERATED VIA SPACETRACK.ORG API",
    "ORIGINATOR": "JSPOC",
    "NORAD_CAT_ID": "40076",
    "OBJECT_NAME": "TDS 1",
    "OBJECT_TYPE": "PAYLOAD",
    "CLASSIFICATION_TYPE": "U",
    "INTLDES": "14037H",
    "EPOCH": "2014-11-21 17:13:33",
    "EPOCH_MICROSECONDS": "558527",
    "MEAN_MOTION": "14.80576105",
    "ECCENTRICITY": "0.0005277",
    "INCLINATION": "98.3784",
    "RA_OF_ASC_NODE": "23.449",
    "ARG_OF_PERICENTER": "195.6665",
    "MEAN_ANOMALY": "164.4367",
    "EPHEMERIS_TYPE": "0",
    "ELEMENT_SET_NO": "999",
    "REV_AT_EPOCH": "2011",
    "BSTAR": "0.00016804",
    "MEAN_MOTION_DOT": "1.231e-05",
    "MEAN_MOTION_DDOT": "0",
    "FILE": "1781836",
    "TLE_LINE0": "0 TDS 1",
    "TLE_LINE1": "1 40076U 14037H   14325.71774952  .00001231  00000-0  16804-3 0  9998",
    "TLE_LINE2": "2 40076 098.3784 023.4490 0005277 195.6665 164.4367 14.80576105 20111",
    "OBJECT_ID": "2014-037H",
    "OBJECT_NUMBER": "40076",
    "SEMIMAJOR_AXIS": "7005.647",
    "PERIOD": "97.259",
    "APOGEE": "631.209",
    "PERIGEE": "623.815"
  },
  {
    "COMMENT": "GENERATED VIA SPACETRACK.ORG API",
    "ORIGINATOR": "JSPOC",
    "NORAD_CAT_ID": "40076",
    "OBJECT_NAME": "TDS 1",
    "OBJECT_TYPE": "PAYLOAD",
    "CLASSIFICATION_TYPE": "U",
    "INTLDES": "14037H",
    "EPOCH": "2014-11-22 01:20:08",
    "EPOCH_MICROSECONDS": "998079",
    "MEAN_MOTION": "14.80576923",
    "ECCENTRICITY": "0.0005282",
    "INCLINATION": "98.3784",
    "RA_OF_ASC_NODE": "23.8018",
    "ARG_OF_PERICENTER": "195.1361",
    "MEAN_ANOMALY": "164.9693",
    "EPHEMERIS_TYPE": "0",
    "ELEMENT_SET_NO": "999",
    "REV_AT_EPOCH": "2016",
    "BSTAR": "0.00016794",
    "MEAN_MOTION_DOT": "1.231e-05",
    "MEAN_MOTION_DDOT": "0",
    "FILE": "1782077",
    "TLE_LINE0": "0 TDS 1",
    "TLE_LINE1": "1 40076U 14037H   14326.05565970  .00001231  00000-0  16794-3 0  9992",
    "TLE_LINE2": "2 40076 098.3784 023.8018 0005282 195.1361 164.9693 14.80576923 20165",
    "OBJECT_ID": "2014-037H",
    "OBJECT_NUMBER": "40076",
    "SEMIMAJOR_AXIS": "7005.645",
    "PERIOD": "97.259",
    "APOGEE": "631.210",
    "PERIGEE": "623.809"
  },
  {
    "COMMENT": "GENERATED VIA SPACETRACK.ORG API",
    "ORIGINATOR": "JSPOC",
    "NORAD_CAT_ID": "40076",
    "OBJECT_NAME": "TDS 1",
    "OBJECT_TYPE": "PAYLOAD",
    "CLASSIFICATION_TYPE": "U",
    "INTLDES": "14037H",
    "EPOCH": "2014-11-22 09:26:44",
    "EPOCH_MICROSECONDS": "361600",
    "MEAN_MOTION": "14.80577952",
    "ECCENTRICITY": "0.0005346",
    "INCLINATION": "98.3784",
    "RA_OF_ASC_NODE": "24.1548",
    "ARG_OF_PERICENTER": "193.4009",
    "MEAN_ANOMALY": "166.7066",
    "EPHEMERIS_TYPE": "0",
    "ELEMENT_SET_NO": "999",
    "REV_AT_EPOCH": "2021",
    "BSTAR": "0.00016984",
    "MEAN_MOTION_DOT": "1.245e-05",
    "MEAN_MOTION_DDOT": "0",
    "FILE": "1782187",
    "TLE_LINE0": "0 TDS 1",
    "TLE_LINE1": "1 40076U 14037H   14326.39356900  .00001245  00000-0  16984-3 0  9996",
    "TLE_LINE2": "2 40076 098.3784 024.1548 0005346 193.4009 166.7066 14.80577952 20211",
    "OBJECT_ID": "2014-037H",
    "OBJECT_NUMBER": "40076",
    "SEMIMAJOR_AXIS": "7005.641",
    "PERIOD": "97.259",
    "APOGEE": "631.252",
    "PERIGEE": "623.761"
  },
  {
    "COMMENT": "GENERATED VIA SPACETRACK.ORG API",
    "ORIGINATOR": "JSPOC",
    "NORAD_CAT_ID": "40076",
    "OBJECT_NAME": "TDS 1",
    "OBJECT_TYPE": "PAYLOAD",
    "CLASSIFICATION_TYPE": "U",
    "INTLDES": "14037H",
    "EPOCH": "2014-11-22 17:33:19",
    "EPOCH_MICROSECONDS": "705247",
    "MEAN_MOTION": "14.80578943",
    "ECCENTRICITY": "0.0005371",
    "INCLINATION": "98.3785",
    "RA_OF_ASC_NODE": "24.5079",
    "ARG_OF_PERICENTER": "191.8783",
    "MEAN_ANOMALY": "168.23",
    "EPHEMERIS_TYPE": "0",
    "ELEMENT_SET_NO": "999",
    "REV_AT_EPOCH": "2026",
    "BSTAR": "0.00017188",
    "MEAN_MOTION_DOT": "1.261e-05",
    "MEAN_MOTION_DDOT": "0",
    "FILE": "1782340",
    "TLE_LINE0": "0 TDS 1",
    "TLE_LINE1": "1 40076U 14037H   14326.73147807  .00001261  00000-0  17188-3 0  9993",
    "TLE_LINE2": "2 40076 098.3785 024.5079 0005371 191.8783 168.2300 14.80578943 20268",
    "OBJECT_ID": "2014-037H",
    "OBJECT_NUMBER": "40076",
    "SEMIMAJOR_AXIS": "7005.638",
    "PERIOD": "97.259",
    "APOGEE": "631.266",
    "PERIGEE": "623.741"
  },
  {
    "COMMENT": "GENERATED VIA SPACETRACK.ORG API",
    "ORIGINATOR": "JSPOC",
    "NORAD_CAT_ID": "40076",
    "OBJECT_NAME": "TDS 1",
    "OBJECT_TYPE": "PAYLOAD",
    "CLASSIFICATION_TYPE": "U",
    "INTLDES": "14037H",
    "EPOCH": "2014-11-23 01:39:55",
    "EPOCH_MICROSECONDS": "60992",
    "MEAN_MOTION": "14.80579887",
    "ECCENTRICITY": "0.000541",
    "INCLINATION": "98.3783",
    "RA_OF_ASC_NODE": "24.8606",
    "ARG_OF_PERICENTER": "190.7978",
    "MEAN_ANOMALY": "169.3132",
    "EPHEMERIS_TYPE": "0",
    "ELEMENT_SET_NO": "999",
    "REV_AT_EPOCH": "2031",
    "BSTAR": "0.00017227",
    "MEAN_MOTION_DOT": "1.264e-05",
    "MEAN_MOTION_DDOT": "0",
    "FILE": "1782570",
    "TLE_LINE0": "0 TDS 1",
    "TLE_LINE1": "1 40076U 14037H   14327.06938728  .00001264  00000-0  17227-3 0  9997",
    "TLE_LINE2": "2 40076 098.3783 024.8606 0005410 190.7978 169.3132 14.80579887 20312",
    "OBJECT_ID": "2014-037H",
    "OBJECT_NUMBER": "40076",
    "SEMIMAJOR_AXIS": "7005.635",
    "PERIOD": "97.259",
    "APOGEE": "631.290",
    "PERIGEE": "623.710"
  },
  {
    "COMMENT": "GENERATED VIA SPACETRACK.ORG API",
    "ORIGINATOR": "JSPOC",
    "NORAD_CAT_ID": "40076",
    "OBJECT_NAME": "TDS 1",
    "OBJECT_TYPE": "PAYLOAD",
    "CLASSIFICATION_TYPE": "U",
    "INTLDES": "14037H",
    "EPOCH": "2014-11-23 09:46:30",
    "EPOCH_MICROSECONDS": "337247",
    "MEAN_MOTION": "14.80580897",
    "ECCENTRICITY": "0.000546",
    "INCLINATION": "98.3784",
    "RA_OF_ASC_NODE": "25.2138",
    "ARG_OF_PERICENTER": "189.3591",
    "MEAN_ANOMALY": "170.7521",
    "EPHEMERIS_TYPE": "0",
    "ELEMENT_SET_NO": "999",
    "REV_AT_EPOCH": "2036",
    "BSTAR": "0.00017317",
    "MEAN_MOTION_DOT": "1.271e-05",
    "MEAN_MOTION_DDOT": "0",
    "FILE": "1782705",
    "TLE_LINE0": "0 TDS 1",
    "TLE_LINE1": "1 40076U 14037H   14327.40729557  .00001271  00000-0  17317-3 0  9991",
    "TLE_LINE2": "2 40076 098.3784 025.2138 0005460 189.3591 170.7521 14.80580897 20364",
    "OBJECT_ID": "2014-037H",
    "OBJECT_NUMBER": "40076",
    "SEMIMAJOR_AXIS": "7005.632",
    "PERIOD": "97.259",
    "APOGEE": "631.322",
    "PERIGEE": "623.672"
  },
  {
    "COMMENT": "GENERATED VIA SPACETRACK.ORG API",
    "ORIGINATOR": "JSPOC",
    "NORAD_CAT_ID": "40076",
    "OBJECT_NAME": "TDS 1",
    "OBJECT_TYPE": "PAYLOAD",
    "CLASSIFICATION_TYPE": "U",
    "INTLDES": "14037H",
    "EPOCH": "2014-11-23 17:53:05",
    "EPOCH_MICROSECONDS": "628192",
    "MEAN_MOTION": "14.80581758",
    "ECCENTRICITY": "0.0005486",
    "INCLINATION": "98.3783",
    "RA_OF_ASC_NODE": "25.5664",
    "ARG_OF_PERICENTER": "188.3833",
    "MEAN_ANOMALY": "171.7278",
    "EPHEMERIS_TYPE": "0",
    "ELEMENT_SET_NO": "999",
    "REV_AT_EPOCH": "2041",
    "BSTAR": "0.00017293",
    "MEAN_MOTION_DOT": "1.269e-05",
    "MEAN_MOTION_DDOT": "0",
    "FILE": "1782857",
    "TLE_LINE0": "0 TDS 1",
    "TLE_LINE1": "1 40076U 14037H   14327.74520403  .00001269  00000-0  17293-3 0  9997",
    "TLE_LINE2": "2 40076 098.3783 025.5664 0005486 188.3833 171.7278 14.80581758 20419",
    "OBJECT_ID": "2014-037H",
    "OBJECT_NUMBER": "40076",
    "SEMIMAJOR_AXIS": "7005.629",
    "PERIOD": "97.259",
    "APOGEE": "631.338",
    "PERIGEE": "623.651"
  },
  {
    "COMMENT": "GENERATED VIA SPACETRACK.ORG API",
    "ORIGINATOR": "JSPOC",
    "NORAD_CAT_ID": "40076",
    "OBJECT_NAME": "TDS 1",
    "OBJECT_TYPE": "PAYLOAD",
    "CLASSIFICATION_TYPE": "U",
    "INTLDES": "14037H",
    "EPOCH": "2014-11-24 01:59:40",
    "EPOCH_MICROSECONDS": "950240",
    "MEAN_MOTION": "14.80582561",
    "ECCENTRICITY": "0.0005537",
    "INCLINATION": "98.3781",
    "RA_OF_ASC_NODE": "25.9191",
    "ARG_OF_PERICENTER": "187.0629",
    "MEAN_ANOMALY": "173.0515",
    "EPHEMERIS_TYPE": "0",
    "ELEMENT_SET_NO": "999",
    "REV_AT_EPOCH": "2046",
    "BSTAR": "0.00017141",
    "MEAN_MOTION_DOT": "1.257e-05",
    "MEAN_MOTION_DDOT": "0",
    "FILE": "1783075",
    "TLE_LINE0": "0 TDS 1",
    "TLE_LINE1": "1 40076U 14037H   14328.08311285  .00001257  00000-0  17141-3 0  9990",
    "TLE_LINE2": "2 40076 098.3781 025.9191 0005537 187.0629 173.0515 14.80582561 20469",
    "OBJECT_ID": "2014-037H",
    "OBJECT_NUMBER": "40076",
    "SEMIMAJOR_AXIS": "7005.627",
    "PERIOD": "97.259",
    "APOGEE": "631.371",
    "PERIGEE": "623.613"
  },
  {
    "COMMENT": "GENERATED VIA SPACETRACK.ORG API",
    "ORIGINATOR": "JSPOC",
    "NORAD_CAT_ID": "40076",
    "OBJECT_NAME": "TDS 1",
    "OBJECT_TYPE": "PAYLOAD",
    "CLASSIFICATION_TYPE": "U",
    "INTLDES": "14037H",
    "EPOCH": "2014-11-24 10:06:16",
    "EPOCH_MICROSECONDS": "202303",
    "MEAN_MOTION": "14.80583391",
    "ECCENTRICITY": "0.0005527",
    "INCLINATION": "98.3779",
    "RA_OF_ASC_NODE": "26.2718",
    "ARG_OF_PERICENTER": "186.0774",
    "MEAN_ANOMALY": "174.0369",
    "EPHEMERIS_TYPE": "0",
    "ELEMENT_SET_NO": "999",
    "REV_AT_EPOCH": "2051",
    "BSTAR": "0.00016993",
    "MEAN_MOTION_DOT": "1.246e-05",
    "MEAN_MOTION_DDOT": "0",
    "FILE": "1783192",
    "TLE_LINE0": "0 TDS 1",
    "TLE_LINE1": "1 40076U 14037H   14328.42102086  .00001246  00000-0  16993-3 0  9997",
    "TLE_LINE2": "2 40076 098.3779 026.2718 0005527 186.0774 174.0369 14.80583391 20510",
    "OBJECT_ID": "2014-037H",
    "OBJECT_NUMBER": "40076",
    "SEMIMAJOR_AXIS": "7005.624",
    "PERIOD": "97.258",
    "APOGEE": "631.361",
    "PERIGEE": "623.617"
  }
]
